CTC2_L_00070001-01
1 70736U 24053ER  26037.47790509  .00000000  00000+0  00000-0 0  9995
2 70736  40.0000   0.0000 0000000   0.0000   0.0000 15.28598690    13
CTC2_L_00070001-02
1 70737U 24302RX  26037.47790509  .00000000  00000+0  00000-0 0  9993
2 70737  40.0000   0.0000 0000000   0.0000  90.0000 15.28598690    13
CTC2_L_00070001-03
1 70738U 24230NU  26037.47790509  .00000000  00000+0  00000-0 0  9994
2 70738  40.0000   0.0000 0000000   0.0000 180.0000 15.28598690    14
CTC2_L_00070001-04
1 70739U 24347LH  26037.47790509  .00000000  00000+0  00000-0 0  9994
2 70739  40.0000   0.0000 0000000   0.0000 270.0000 15.28598690    15
CTC2_L_00070002-01
1 70740U 23224NV  26037.47790509  .00000000  00000+0  00000-0 0  9999
2 70740  40.0000  12.0000 0000000   0.0000  12.0000 15.28598690    14
CTC2_L_00070002-02
1 70741U 26174XD  26037.47790509  .00000000  00000+0  00000-0 0  9997
2 70741  40.0000  12.0000 0000000   0.0000 102.0000 15.28598690    15
CTC2_L_00070002-03
1 70742U 26580GL  26037.47790509  .00000000  00000+0  00000-0 0  9999
2 70742  40.0000  12.0000 0000000   0.0000 192.0000 15.28598690    15
CTC2_L_00070002-04
1 70743U 23786CU  26037.47790509  .00000000  00000+0  00000-0 0  9995
2 70743  40.0000  12.0000 0000000   0.0000 282.0000 15.28598690    16
CTC2_L_00070003-01
1 70744U 24145FE  26037.47790509  .00000000  00000+0  00000-0 0  9996
2 70744  40.0000  24.0000 0000000   0.0000  24.0000 15.28598690    14
CTC2_L_00070003-02
1 70745U 23452GG  26037.47790509  .00000000  00000+0  00000-0 0  9997
2 70745  40.0000  24.0000 0000000   0.0000 114.0000 15.28598690    15
CTC2_L_00070003-03
1 70746U 22281CD  26037.47790509  .00000000  00000+0  00000-0 0  9997
2 70746  40.0000  24.0000 0000000   0.0000 204.0000 15.28598690    16
CTC2_L_00070003-04
1 70747U 25651YF  26037.47790509  .00000000  00000+0  00000-0 0  9992
2 70747  40.0000  24.0000 0000000   0.0000 294.0000 15.28598690    16
CTC2_L_00070004-01
1 70748U 22285WP  26037.47790509  .00000000  00000+0  00000-0 0  9993
2 70748  40.0000  36.0000 0000000   0.0000  36.0000 15.28598690    14
CTC2_L_00070004-02
1 70749U 23895YY  26037.47790509  .00000000  00000+0  00000-0 0  9992
2 70749  40.0000  36.0000 0000000   0.0000 126.0000 15.28598690    15
CTC2_L_00070004-03
1 70750U 22844AB  26037.47790509  .00000000  00000+0  00000-0 0  9997
2 70750  40.0000  36.0000 0000000   0.0000 216.0000 15.28598690    17
CTC2_L_00070004-04
1 70751U 22731XP  26037.47790509  .00000000  00000+0  00000-0 0  9993
2 70751  40.0000  36.0000 0000000   0.0000 306.0000 15.28598690    18
CTC2_L_00070005-01
1 70752U 26311MC  26037.47790509  .00000000  00000+0  00000-0 0  9992
2 70752  40.0000  48.0000 0000000   0.0000  48.0000 15.28598690    15
CTC2_L_00070005-02
1 70753U 22646QA  26037.47790509  .00000000  00000+0  00000-0 0  9990
2 70753  40.0000  48.0000 0000000   0.0000 138.0000 15.28598690    16
CTC2_L_00070005-03
1 70754U 22867KT  26037.47790509  .00000000  00000+0  00000-0 0  9996
2 70754  40.0000  48.0000 0000000   0.0000 228.0000 15.28598690    17
CTC2_L_00070005-04
1 70755U 25541CY  26037.47790509  .00000000  00000+0  00000-0 0  9999
2 70755  40.0000  48.0000 0000000   0.0000 318.0000 15.28598690    18
CTC2_L_00070006-01
1 70756U 24614JC  26037.47790509  .00000000  00000+0  00000-0 0  9990
2 70756  40.0000  60.0000 0000000   0.0000  60.0000 15.28598690    17
CTC2_L_00070006-02
1 70757U 22643ZW  26037.47790509  .00000000  00000+0  00000-0 0  9991
2 70757  40.0000  60.0000 0000000   0.0000 150.0000 15.28598690    18
CTC2_L_00070006-03
1 70758U 22551QM  26037.47790509  .00000000  00000+0  00000-0 0  9990
2 70758  40.0000  60.0000 0000000   0.0000 240.0000 15.28598690    19
CTC2_L_00070006-04
1 70759U 26080KP  26037.47790509  .00000000  00000+0  00000-0 0  9992
2 70759  40.0000  60.0000 0000000   0.0000 330.0000 15.28598690    10
CTC2_L_00070007-01
1 70760U 22138TL  26037.47790509  .00000000  00000+0  00000-0 0  9994
2 70760  40.0000  72.0000 0000000   0.0000  72.0000 15.28598690    18
CTC2_L_00070007-02
1 70761U 23310GH  26037.47790509  .00000000  00000+0  00000-0 0  9998
2 70761  40.0000  72.0000 0000000   0.0000 162.0000 15.28598690    19
CTC2_L_00070007-03
1 70762U 22009IT  26037.47790509  .00000000  00000+0  00000-0 0  9993
2 70762  40.0000  72.0000 0000000   0.0000 252.0000 15.28598690    10
CTC2_L_00070007-04
1 70763U 25118WB  26037.47790509  .00000000  00000+0  00000-0 0  9998
2 70763  40.0000  72.0000 0000000   0.0000 342.0000 15.28598690    11
CTC2_L_00070008-01
1 70764U 24215SI  26037.47790509  .00000000  00000+0  00000-0 0  9996
2 70764  40.0000  84.0000 0000000   0.0000  84.0000 15.28598690    18
CTC2_L_00070008-02
1 70765U 26958IS  26037.47790509  .00000000  00000+0  00000-0 0  9993
2 70765  40.0000  84.0000 0000000   0.0000 174.0000 15.28598690    19
CTC2_L_00070008-03
1 70766U 23923HC  26037.47790509  .00000000  00000+0  00000-0 0  9993
2 70766  40.0000  84.0000 0000000   0.0000 264.0000 15.28598690    10
CTC2_L_00070008-04
1 70767U 26199QM  26037.47790509  .00000000  00000+0  00000-0 0  9992
2 70767  40.0000  84.0000 0000000   0.0000 354.0000 15.28598690    11
CTC2_L_00070009-01
1 70768U 23641IB  26037.47790509  .00000000  00000+0  00000-0 0  9992
2 70768  40.0000  96.0000 0000000   0.0000  96.0000 15.28598690    18
CTC2_L_00070009-02
1 70769U 23188TB  26037.47790509  .00000000  00000+0  00000-0 0  9999
2 70769  40.0000  96.0000 0000000   0.0000 186.0000 15.28598690    19
CTC2_L_00070009-03
1 70770U 26152MK  26037.47790509  .00000000  00000+0  00000-0 0  9995
2 70770  40.0000  96.0000 0000000   0.0000 276.0000 15.28598690    11
CTC2_L_00070009-04
1 70771U 23692SC  26037.47790509  .00000000  00000+0  00000-0 0  9992
2 70771  40.0000  96.0000 0000000   0.0000   6.0000 15.28598690    13
CTC2_L_00070010-01
1 70772U 26236SB  26037.47790509  .00000000  00000+0  00000-0 0  9990
2 70772  40.0000 108.0000 0000000   0.0000 108.0000 15.28598690    11
CTC2_L_00070010-02
1 70773U 24201HX  26037.47790509  .00000000  00000+0  00000-0 0  9991
2 70773  40.0000 108.0000 0000000   0.0000 198.0000 15.28598690    11
CTC2_L_00070010-03
1 70774U 22252HH  26037.47790509  .00000000  00000+0  00000-0 0  9996
2 70774  40.0000 108.0000 0000000   0.0000 288.0000 15.28598690    12
CTC2_L_00070010-04
1 70775U 26021CD  26037.47790509  .00000000  00000+0  00000-0 0  9995
2 70775  40.0000 108.0000 0000000   0.0000  18.0000 15.28598690    14
CTC2_L_00070011-01
1 70776U 26509NL  26037.47790509  .00000000  00000+0  00000-0 0  9997
2 70776  40.0000 120.0000 0000000   0.0000 120.0000 15.28598690    13
CTC2_L_00070011-02
1 70777U 25555BI  26037.47790509  .00000000  00000+0  00000-0 0  9998
2 70777  40.0000 120.0000 0000000   0.0000 210.0000 15.28598690    14
CTC2_L_00070011-03
1 70778U 24276MY  26037.47790509  .00000000  00000+0  00000-0 0  9998
2 70778  40.0000 120.0000 0000000   0.0000 300.0000 15.28598690    15
CTC2_L_00070011-04
1 70779U 26905TS  26037.47790509  .00000000  00000+0  00000-0 0  9990
2 70779  40.0000 120.0000 0000000   0.0000  30.0000 15.28598690    16
CTC2_L_00070012-01
1 70780U 24239ZR  26037.47790509  .00000000  00000+0  00000-0 0  9990
2 70780  40.0000 132.0000 0000000   0.0000 132.0000 15.28598690    14
CTC2_L_00070012-02
1 70781U 24110ID  26037.47790509  .00000000  00000+0  00000-0 0  9999
2 70781  40.0000 132.0000 0000000   0.0000 222.0000 15.28598690    15
CTC2_L_00070012-03
1 70782U 22911LR  26037.47790509  .00000000  00000+0  00000-0 0  9997
2 70782  40.0000 132.0000 0000000   0.0000 312.0000 15.28598690    16
CTC2_L_00070012-04
1 70783U 25968EN  26037.47790509  .00000000  00000+0  00000-0 0  9993
2 70783  40.0000 132.0000 0000000   0.0000  42.0000 15.28598690    17
CTC2_L_00070013-01
1 70784U 25347LT  26037.47790509  .00000000  00000+0  00000-0 0  9995
2 70784  40.0000 144.0000 0000000   0.0000 144.0000 15.28598690    14
CTC2_L_00070013-02
1 70785U 22033LC  26037.47790509  .00000000  00000+0  00000-0 0  9995
2 70785  40.0000 144.0000 0000000   0.0000 234.0000 15.28598690    15
CTC2_L_00070013-03
1 70786U 23335ND  26037.47790509  .00000000  00000+0  00000-0 0  9992
2 70786  40.0000 144.0000 0000000   0.0000 324.0000 15.28598690    16
CTC2_L_00070013-04
1 70787U 26533XO  26037.47790509  .00000000  00000+0  00000-0 0  9996
2 70787  40.0000 144.0000 0000000   0.0000  54.0000 15.28598690    17
CTC2_L_00070014-01
1 70788U 23441EV  26037.47790509  .00000000  00000+0  00000-0 0  9992
2 70788  40.0000 156.0000 0000000   0.0000 156.0000 15.28598690    14
CTC2_L_00070014-02
1 70789U 23902TK  26037.47790509  .00000000  00000+0  00000-0 0  9995
2 70789  40.0000 156.0000 0000000   0.0000 246.0000 15.28598690    15
CTC2_L_00070014-03
1 70790U 23593Y   26037.47790509  .00000000  00000+0  00000-0 0  9993
2 70790  40.0000 156.0000 0000000   0.0000 336.0000 15.28598690    17
CTC2_L_00070014-04
1 70791U 26418DU  26037.47790509  .00000000  00000+0  00000-0 0  9993
2 70791  40.0000 156.0000 0000000   0.0000  66.0000 15.28598690    18
CTC2_L_00070015-01
1 70792U 23048PO  26037.47790509  .00000000  00000+0  00000-0 0  9990
2 70792  40.0000 168.0000 0000000   0.0000 168.0000 15.28598690    15
CTC2_L_00070015-02
1 70793U 23631LO  26037.47790509  .00000000  00000+0  00000-0 0  9999
2 70793  40.0000 168.0000 0000000   0.0000 258.0000 15.28598690    16
CTC2_L_00070015-03
1 70794U 26072SQ  26037.47790509  .00000000  00000+0  00000-0 0  9992
2 70794  40.0000 168.0000 0000000   0.0000 348.0000 15.28598690    17
CTC2_L_00070015-04
1 70795U 23610XG  26037.47790509  .00000000  00000+0  00000-0 0  9998
2 70795  40.0000 168.0000 0000000   0.0000  78.0000 15.28598690    18
CTC2_L_00070016-01
1 70796U 22443OT  26037.47790509  .00000000  00000+0  00000-0 0  9992
2 70796  40.0000 180.0000 0000000   0.0000 180.0000 15.28598690    17
CTC2_L_00070016-02
1 70797U 23496Y   26037.47790509  .00000000  00000+0  00000-0 0  9992
2 70797  40.0000 180.0000 0000000   0.0000 270.0000 15.28598690    18
